     2.100          NAVIGATION                              RINEX VERSION / TYPE
fic2rin                                 02/17/2016 00:08:00 PGM / RUN BY / DATE
                                                            END OF HEADER
32 16  2 16  4  0  0.0  .305240973830D-05  .693489710102D-11  .000000000000D+00
     .470000000000D+02  .421562500000D+02  .430232206613D-08  .264045672958D+01
     .218674540520D-05  .162880402058D-03  .105481594801D-04  .517915636444D+04
     .187200000000D+06  .167638063431D-07  .167783088460D+01 -.223517417908D-07
     .959901566747D+00  .167562500000D+03  .253401139860D-01 -.771496421637D-08
    -.215723271454D-09  .100000000000D+01  .188400000000D+04  .000000000000D+00
     .240000000000D+01  .630000000000D+02  .279396772385D-08  .470000000000D+02
     .180006000000D+06  .400000000000D+01
19 16  2 16  3 59 44.0 -.524875707924D-03 -.113686837722D-12  .000000000000D+00
     .600000000000D+01 -.654375000000D+02  .428374986395D-08 -.400828548186D+00
    -.328011810780D-05  .112610522192D-01  .948458909988D-05  .515519983673D+04
     .187184000000D+06  .372529029846D-07 -.136374079888D+01  .169500708580D-06
     .972182253465D+00  .202312500000D+03  .681014465820D+00 -.809855162290D-08
     .475019786481D-10  .100000000000D+01  .188400000000D+04  .000000000000D+00
     .240000000000D+01  .000000000000D+00 -.153668224812D-07  .600000000000D+01
     .181446000000D+06  .400000000000D+01
26 16  2 16  3 59 44.0 -.256253406405D-03 -.156887836056D-10  .000000000000D+00
     .200000000000D+01 -.189062500000D+02  .472055377287D-08 -.177963632365D+01
    -.116974115372D-05  .854311627336D-03  .461749732494D-05  .515371216583D+04
     .187184000000D+06  .260770320892D-07 -.251157201856D+01 -.800937414169D-07
     .960735080415D+00  .291437500000D+03 -.116863595701D+00 -.837142013182D-08
    -.439304013061D-10  .100000000000D+01  .188400000000D+04  .000000000000D+00
     .240000000000D+01  .000000000000D+00  .698491930962D-08  .200000000000D+01
     .182016000000D+06  .400000000000D+01
30 16  2 16  3 59 44.0  .968994572759D-04  .432009983342D-11  .000000000000D+00
     .400000000000D+01  .787187500000D+02  .475269796895D-08 -.148851727312D+00
     .411644577980D-05  .170983979478D-02  .567547976971D-05  .515364093399D+04
     .187184000000D+06  .428408384323D-07  .280060269063D+01 -.391155481339D-07
     .953441153737D+00  .265281250000D+03  .302035798594D+01 -.838784938760D-08
     .169649923743D-09  .100000000000D+01  .188400000000D+04  .000000000000D+00
     .240000000000D+01  .000000000000D+00  .325962901115D-08  .400000000000D+01
     .182016000000D+06  .400000000000D+01
 4 16  2 16  4  0  0.0 -.250320415944D-03 -.909494701773D-12  .000000000000D+00
     .600000000000D+02 -.246562500000D+02  .545058418157D-08 -.260714799694D+01
    -.146776437759D-05  .811484060250D-02  .474415719509D-05  .515361518097D+04
     .187200000000D+06  .134110450745D-06 -.248320357492D+01 -.158324837685D-06
     .983476845621D+00  .299437500000D+03  .854247642272D+00 -.801069082028D-08
    -.250010413937D-11  .100000000000D+01  .188400000000D+04  .000000000000D+00
     .340000000000D+01  .630000000000D+02 -.190921127796D-07  .600000000000D+02
     .184536000000D+06  .400000000000D+01
25 16  2 16  3 59 44.0 -.117831863463D-03 -.670752342558D-11  .000000000000D+00
     .100000000000D+01 -.192500000000D+02  .440661212451D-08 -.120524406145D+01
    -.996515154839D-06  .514749891590D-02  .406615436077D-05  .515355359077D+04
     .187184000000D+06  .167638063431D-06 -.250437994756D+01  .242143869400D-07
     .978718725049D+00  .311406250000D+03  .696476595594D+00 -.817962642856D-08
    -.496449250533D-10  .100000000000D+01  .188400000000D+04  .000000000000D+00
     .240000000000D+01  .000000000000D+00  .558793544769D-08  .100000000000D+01
     .185226000000D+06  .400000000000D+01
11 16  2 16  3 59 44.0 -.632536597550D-03 -.181898940355D-11  .000000000000D+00
     .600000000000D+01 -.174687500000D+02  .620847289353D-08 -.115887762048D+00
    -.771135091782D-06  .162233946612D-01  .844709575176D-05  .515365139008D+04
     .187184000000D+06 -.281259417534D-06 -.773989716716D+00  .111758708954D-06
     .895738243116D+00  .183593750000D+03  .150098022480D+01 -.913966641808D-08
     .265368196508D-09  .100000000000D+01  .188400000000D+04  .000000000000D+00
     .240000000000D+01  .000000000000D+00 -.121071934700D-07  .600000000000D+01
     .185286000000D+06  .400000000000D+01
11 16  2 16  5 59 44.0 -.632549170405D-03 -.181898940355D-11  .000000000000D+00
     .700000000000D+01 -.279375000000D+02  .621847331009D-08  .934263503162D+00
    -.152364373207D-05  .162243094528D-01  .877305865288D-05  .515365370178D+04
     .194384000000D+06 -.325962901115D-06 -.774055325666D+00 -.134110450745D-06
     .895739733830D+00  .181468750000D+03  .150103554797D+01 -.909145012396D-08
     .202865593023D-09  .100000000000D+01  .188400000000D+04  .000000000000D+00
     .240000000000D+01  .000000000000D+00 -.121071934700D-07  .700000000000D+01
     .187206000000D+06  .400000000000D+01
19 16  2 16  5 59 44.0 -.524876639247D-03 -.113686837722D-12  .000000000000D+00
     .700000000000D+01 -.585312500000D+02  .424553398639D-08  .648422280705D+00
    -.287219882011D-05  .112620153232D-01  .942498445511D-05  .515520164871D+04
     .194384000000D+06 -.102445483208D-06 -.136379866021D+01  .160187482834D-06
     .972182559214D+00  .204593750000D+03  .681009348533D+00 -.805354974839D-08
    -.250010413937D-10  .100000000000D+01  .188400000000D+04  .000000000000D+00
     .240000000000D+01  .000000000000D+00 -.153668224812D-07  .700000000000D+01
     .187206000000D+06  .400000000000D+01
25 16  2 16  5 59 44.0 -.117880292237D-03 -.670752342558D-11  .000000000000D+00
     .300000000000D+01 -.215000000000D+02  .444054210926D-08 -.154878288560D+00
    -.109337270260D-05  .514795689378D-02  .391528010368D-05  .515355495834D+04
     .194384000000D+06  .260770320892D-07 -.250443939323D+01  .931322574615D-07
     .978717605917D+00  .316593750000D+03  .696363828017D+00 -.833070415012D-08
    -.646455498895D-10  .100000000000D+01  .188400000000D+04  .000000000000D+00
     .240000000000D+01  .000000000000D+00  .558793544769D-08  .300000000000D+01
     .187206000000D+06  .400000000000D+01
26 16  2 16  5 59 44.0 -.256366562098D-03 -.156887836056D-10  .000000000000D+00
     .400000000000D+01 -.145625000000D+02  .472269671927D-08 -.731760667009D+00
    -.862404704094D-06  .853770296089D-03  .370293855667D-05  .515370834541D+04
     .194384000000D+06  .204890966415D-07 -.251163249121D+01 -.372529029846D-07
     .960734948753D+00  .305250000000D+03 -.114579001887D+00 -.836784855448D-08
    -.535736601294D-11  .100000000000D+01  .188400000000D+04  .000000000000D+00
     .240000000000D+01  .000000000000D+00  .698491930962D-08  .400000000000D+01
     .187206000000D+06  .400000000000D+01
30 16  2 16  5 59 44.0  .969301909208D-04  .432009983342D-11  .000000000000D+00
     .190000000000D+02  .726875000000D+02  .469733852015D-08  .901646607897D+00
     .381283462048D-05  .170934607740D-02  .585429370403D-05  .515363971901D+04
     .194384000000D+06  .782310962677D-07  .280054283095D+01  .726431608200D-07
     .953442701504D+00  .263343750000D+03  .302006193375D+01 -.828820237975D-08
     .134291308058D-09  .100000000000D+01  .188400000000D+04  .000000000000D+00
     .240000000000D+01  .000000000000D+00  .325962901115D-08  .190000000000D+02
     .187206000000D+06  .400000000000D+01
 1 16  2 16  6  0  0.0  .118743628263D-04  .102318153949D-11  .000000000000D+00
     .210000000000D+02 -.110937500000D+02  .462876423518D-08  .152526879327D+01
    -.452622771263D-06  .506297417451D-02  .837445259094D-05  .515365344810D+04
     .194400000000D+06 -.502914190292D-07 -.404316696408D+00  .134110450745D-06
     .964053190742D+00  .219906250000D+03  .465035046919D+00 -.812390982202D-08
     .210365905441D-09  .100000000000D+01  .188400000000D+04  .000000000000D+00
     .240000000000D+01  .000000000000D+00  .512227416039D-08  .210000000000D+02
     .187206000000D+06  .400000000000D+01
 2 16  2 16  6  0  0.0  .599544029683D-03  .000000000000D+00  .000000000000D+00
     .630000000000D+02 -.193750000000D+02  .499306512406D-08  .199991486672D+01
    -.128336250782D-05  .154341544257D-01  .877119600773D-05  .515372269249D+04
     .194400000000D+06 -.188127160072D-06 -.447627271210D+00 -.299885869026D-06
     .942764296294D+00  .203031250000D+03 -.216515954932D+01 -.818748389871D-08
     .288226291496D-09  .100000000000D+01  .188400000000D+04  .000000000000D+00
     .240000000000D+01  .000000000000D+00 -.204890966415D-07  .630000000000D+02
     .187206000000D+06  .400000000000D+01
 3 16  2 16  6  0  0.0 -.251862220466D-04 -.466116034659D-11  .000000000000D+00
     .420000000000D+02 -.145000000000D+02  .477305595980D-08 -.217665594957D+01
    -.797212123871D-06  .287294504233D-03  .743567943573D-05  .515376283646D+04
     .194400000000D+06 -.931322574615D-08  .636473372105D+00 -.242143869400D-07
     .959391400400D+00  .233718750000D+03  .309767938287D+01 -.815462538717D-08
    -.175721605224D-09  .100000000000D+01  .188400000000D+04  .000000000000D+00
     .240000000000D+01  .000000000000D+00  .186264514923D-08  .420000000000D+02
     .187206000000D+06  .400000000000D+01
 4 16  2 16  6  0  0.0 -.250326935202D-03 -.909494701773D-12  .000000000000D+00
     .610000000000D+02 -.184687500000D+02  .546629912187D-08 -.155712305764D+01
    -.968575477600D-06  .811602175236D-02  .388734042645D-05  .515361143494D+04
     .194400000000D+06  .208616256714D-06 -.248326130605D+01 -.372529029846D-07
     .983476990450D+00  .312687500000D+03  .854447558805D+00 -.804676375144D-08
     .117862052285D-10  .100000000000D+01  .188400000000D+04  .000000000000D+00
     .340000000000D+01  .630000000000D+02 -.190921127796D-07  .610000000000D+02
     .187206000000D+06  .400000000000D+01
